NORAD_CAT_ID,OBJECT_NAME,OBJECT_TYPE,EPOCH,MEAN_MOTION,ECCENTRICITY,INCLINATION,RA_OF_ASC_NODE,ARG_OF_PERICENTER,MEAN_ANOMALY,BSTAR,MEAN_MOTION_DOT,MEAN_MOTION_DDOT,TLE_LINE0,TLE_LINE1,TLE_LINE2,SEMIMAJOR_AXIS,PERIOD,APOGEE,PERIGEE,DECAYED
55788.0,STARLINK-5804,PAYLOAD,2023-06-26 18:13:11,15.69917427,0.0003238,69.9974,191.859,274.0442,86.0383,7.6549e-06,7.08e-06,0.0,0 STARLINK-5804,1 55788U 23028AZ  23177.75915638  .00000708  00000-0  76549-5 0  9993,2 55788  69.9974 191.8590 0003238 274.0442  86.0383 15.69917427 18717,6737.27,91.725,361.317,356.954,0.0
55788.0,STARLINK-5804,PAYLOAD,2023-06-27 11:02:27,15.69925952,0.0003478,69.9966,189.885,272.6364,87.4433,4.7776e-07,-1.55e-06,0.0,0 STARLINK-5804,1 55788U 23028AZ  23178.46003557 -.00000155  00000-0  47776-6 0  9998,2 55788  69.9966 189.8850 0003478 272.6364  87.4433 15.69925952 18822,6737.246,91.724,361.454,356.768,0.0
55788.0,STARLINK-5804,PAYLOAD,2023-06-28 14:00:01,15.69962019,0.0003484,70.0,186.73,271.3981,315.3685,-0.00069137,-0.00082664,0.0,0 STARLINK-5804,1 55788U 23028AZ  23179.58334491 -.00082664  00000-0 -69137-3 0  9994,2 55788  70.0000 186.7300 0003484 271.3981 315.3685 15.69962019 18993,6737.143,91.722,361.355,356.66,0.0
55788.0,STARLINK-5804,PAYLOAD,2023-06-29 02:48:00,15.69920113,0.0003491,69.9975,185.2302,269.1885,90.891,1.391e-06,-4.6e-07,0.0,0 STARLINK-5804,1 55788U 23028AZ  23180.11667484 -.00000046  00000-0  13910-5 0  9999,2 55788  69.9975 185.2302 0003491 269.1885  90.8910 15.69920113 19089,6737.263,91.724,361.48,356.776,0.0
55788.0,STARLINK-5804,PAYLOAD,2023-07-01 00:40:33,15.6992872,0.0003103,69.9983,179.8568,258.7445,101.3402,1.2474e-05,1.288e-05,0.0,0 STARLINK-5804,1 55788U 23028AZ  23182.02816772  .00001288  00000-0  12474-4 0  9998,2 55788  69.9983 179.8568 0003103 258.7445 101.3402 15.69928720 19386,6737.238,91.724,361.193,357.012,0.0
55788.0,STARLINK-5804,PAYLOAD,2023-07-01 08:19:19,15.69920543,0.0003444,69.9976,178.9611,269.7418,90.3383,4.6052e-06,3.41e-06,0.0,0 STARLINK-5804,1 55788U 23028AZ  23182.34675862  .00000341  00000-0  46052-5 0  9995,2 55788  69.9976 178.9611 0003444 269.7418  90.3383 15.69920543 19433,6737.261,91.724,361.447,356.806,0.0
55788.0,STARLINK-5804,PAYLOAD,2023-07-02 01:08:36,15.69913453,0.0003535,69.9959,176.9924,273.0074,87.0717,-4.274e-06,-7.27e-06,0.0,0 STARLINK-5804,1 55788U 23028AZ  23183.04764929 -.00000727  00000-0 -42740-5 0  9996,2 55788  69.9959 176.9924 0003535 273.0074  87.0717 15.69913453 19544,6737.282,91.725,361.528,356.765,0.0
55788.0,STARLINK-5804,PAYLOAD,2023-07-02 08:47:21,15.69923195,0.0003395,69.998,176.0946,264.3961,95.6848,1.3659e-05,1.43e-05,0.0,0 STARLINK-5804,1 55788U 23028AZ  23183.36622302  .00001430  00000-0  13659-4 0  9995,2 55788  69.9980 176.0946 0003395 264.3961  95.6848 15.69923195 19594,6737.254,91.724,361.406,356.831,0.0
55788.0,STARLINK-5804,PAYLOAD,2023-07-03 01:36:38,15.69915571,0.0003288,69.998,174.1242,265.2541,94.828,5.3562e-06,4.31e-06,0.0,0 STARLINK-5804,1 55788U 23028AZ  23184.06711352  .00000431  00000-0  53562-5 0  9995,2 55788  69.9980 174.1242 0003288 265.2541  94.8280 15.69915571 19700,6737.276,91.725,361.356,356.925,0.0
55788.0,STARLINK-5804,PAYLOAD,2023-07-03 16:54:09,15.69922852,0.0003171,69.9976,172.3337,274.1974,85.8859,7.776e-06,7.22e-06,0.0,0 STARLINK-5804,1 55788U 23028AZ  23184.70427715  .00000722  00000-0  77760-5 0  9992,2 55788  69.9976 172.3337 0003171 274.1974  85.8859 15.69922852 19803,6737.255,91.724,361.256,356.983,0.0
55788.0,STARLINK-5804,PAYLOAD,2023-07-04 02:04:41,15.69899566,0.0003537,69.9997,171.2609,274.7468,85.3324,-1.4744e-05,-1.983e-05,0.0,0 STARLINK-5804,1 55788U 23028AZ  23185.08659369 -.00001983  00000-0 -14744-4 0  9990,2 55788  69.9997 171.2609 0003537 274.7468  85.3324 15.69899566 19869,6737.321,91.726,361.569,356.803,0.0
55788.0,STARLINK-5804,PAYLOAD,2023-07-04 08:11:41,15.69910611,0.0003169,69.9988,170.5432,260.4076,99.6762,-1.441e-05,-1.944e-05,0.0,0 STARLINK-5804,1 55788U 23028AZ  23185.34145496 -.00001944  00000-0 -14410-4 0  9997,2 55788  69.9988 170.5432 0003169 260.4076  99.6762 15.69910611 19907,6737.29,91.725,361.29,357.02,0.0
55788.0,STARLINK-5804,PAYLOAD,2023-07-05 01:00:57,15.69916662,0.0003548,69.9986,168.5712,261.8738,98.2055,2.5205e-06,9e-07,0.0,0 STARLINK-5804,1 55788U 23028AZ  23186.04233209  .00000090  00000-0  25205-5 0  9999,2 55788  69.9986 168.5712 0003548 261.8738  98.2055 15.69916662 20010,6737.272,91.725,361.528,356.747,0.0
55788.0,STARLINK-5804,PAYLOAD,2023-07-05 22:25:27,15.6994556,0.0003231,69.9984,166.0612,258.8255,101.2577,5.3284e-06,4.29e-06,0.0,0 STARLINK-5804,1 55788U 23028AZ  23186.93434925  .00000429  00000-0  53284-5 0  9999,2 55788  69.9984 166.0612 0003231 258.8255 101.2577 15.69945560 20157,6737.19,91.723,361.232,356.878,0.0
55788.0,STARLINK-5804,PAYLOAD,2023-07-06 01:28:56,15.69966378,0.0002924,69.9994,165.7064,248.6697,111.4187,2.8502e-05,3.222e-05,0.0,0 STARLINK-5804,1 55788U 23028AZ  23187.06176329  .00003222  00000-0  28502-4 0  9993,2 55788  69.9994 165.7064 0002924 248.6697 111.4187 15.69966378 20172,6737.13,91.722,360.965,357.025,0.0
55788.0,STARLINK-5804,PAYLOAD,2023-07-06 07:35:55,15.69975846,0.000314,69.9991,164.9917,243.8003,116.287,2.3469e-05,2.616e-05,0.0,0 STARLINK-5804,1 55788U 23028AZ  23187.31661875  .00002616  00000-0  23469-4 0  9999,2 55788  69.9991 164.9917 0003140 243.8003 116.2870 15.69975846 20213,6737.103,91.721,361.084,356.853,0.0
55788.0,STARLINK-5804,PAYLOAD,2023-07-07 05:00:19,15.70041115,0.0003431,69.9983,162.4818,255.2812,104.8003,0.00011099,0.00013218,0.0,0 STARLINK-5804,1 55788U 23028AZ  23188.20855340  .00013218  00000-0  11099-3 0  9995,2 55788  69.9983 162.4818 0003431 255.2812 104.8003 15.70041115 20356,6736.916,91.717,361.093,356.47,0.0
55788.0,STARLINK-5804,PAYLOAD,2023-07-07 08:04:16,15.69660066,0.0002282,69.9987,162.1243,257.7463,102.3477,-0.00031735,-0.00037779,0.0,0 STARLINK-5804,1 55788U 23028AZ  23188.33630696 -.00037779  00000-0 -31735-3 0  9993,2 55788  69.9987 162.1243 0002282 257.7463 102.3477 15.69660066 20371,6738.007,91.74,361.409,358.334,0.0
55788.0,STARLINK-5804,PAYLOAD,2023-07-08 14:00:01,15.69904336,0.0003605,70.0006,158.6158,270.4788,296.6179,-0.00052872,-0.00063262,0.0,0 STARLINK-5804,1 55788U 23028AZ  23189.58334491 -.00063262  00000-0 -52872-3 0  9996,2 55788  70.0006 158.6158 0003605 270.4788 296.6179 15.69904336 20561,6737.308,91.725,361.601,356.744,0.0
55788.0,STARLINK-5804,PAYLOAD,2023-07-09 04:24:47,15.69912328,0.0003473,69.9979,156.9277,266.8079,93.2719,-5.1356e-05,-6.38e-05,0.0,0 STARLINK-5804,1 55788U 23028AZ  23190.18388575 -.00006380  00000-0 -51356-4 0  9991,2 55788  69.9979 156.9277 0003473 266.8079  93.2719 15.69912328 20667,6737.285,91.725,361.49,356.81,0.0
55788.0,STARLINK-5804,PAYLOAD,2023-07-10 01:49:21,15.69882869,0.0003609,69.9981,154.4202,269.5898,90.4884,1.5104e-05,1.601e-05,0.0,0 STARLINK-5804,1 55788U 23028AZ  23191.07594236  .00001601  00000-0  15104-4 0  9993,2 55788  69.9981 154.4202 0003609 269.5898  90.4884 15.69882869 20805,6737.369,91.727,361.666,356.803,0.0
55788.0,STARLINK-5804,PAYLOAD,2023-07-10 06:24:36,15.69896547,0.0003756,69.9985,153.8833,268.4182,91.6584,1.7998e-05,1.949e-05,0.0,0 STARLINK-5804,1 55788U 23028AZ  23191.26708768  .00001949  00000-0  17998-4 0  9999,2 55788  69.9985 153.8833 0003756 268.4182  91.6584 15.69896547 20830,6737.33,91.726,361.726,356.664,0.0
55788.0,STARLINK-5804,PAYLOAD,2023-07-10 15:35:08,15.69868679,0.0003332,69.998,152.8083,275.2765,84.805,7.9008e-05,9.276e-05,0.0,0 STARLINK-5804,1 55788U 23028AZ  23191.64940228  .00009276  00000-0  79008-4 0  9991,2 55788  69.9980 152.8083 0003332 275.2765  84.8050 15.69868679 20897,6737.41,91.727,361.52,357.03,0.0
55788.0,STARLINK-5804,PAYLOAD,2023-07-10 23:13:53,15.69902316,0.0003736,69.9982,151.9114,265.3806,94.6963,2.5214e-05,2.817e-05,0.0,0 STARLINK-5804,1 55788U 23028AZ  23191.96798050  .00002817  00000-0  25214-4 0  9994,2 55788  69.9982 151.9114 0003736 265.3806  94.6963 15.69902316 20943,6737.313,91.725,361.696,356.661,0.0
55788.0,STARLINK-5804,PAYLOAD,2023-07-11 06:52:38,15.69910118,0.000372,69.9983,151.0161,266.2358,93.8412,3.193e-05,3.626e-05,0.0,0 STARLINK-5804,1 55788U 23028AZ  23192.28656212  .00003626  00000-0  31930-4 0  9994,2 55788  69.9983 151.0161 0003720 266.2358  93.8412 15.69910118 20996,6737.291,91.725,361.662,356.65,0.0
55788.0,STARLINK-5804,PAYLOAD,2023-07-12 07:20:41,15.69916757,0.0003673,69.9984,148.1492,264.4915,95.5862,2.4699e-05,2.757e-05,0.0,0 STARLINK-5804,1 55788U 23028AZ  23193.30603569  .00002757  00000-0  24699-4 0  9993,2 55788  69.9984 148.1492 0003673 264.4915  95.5862 15.69916757 21159,6737.272,91.725,361.612,356.663,0.0
55788.0,STARLINK-5804,PAYLOAD,2023-07-13 06:16:59,15.69899457,0.0003443,69.9979,145.4624,264.4103,95.67,4.5471e-05,5.253e-05,0.0,0 STARLINK-5804,1 55788U 23028AZ  23194.26179603  .00005253  00000-0  45471-4 0  9991,2 55788  69.9979 145.4624 0003443 264.4103  95.6700 15.69899457 21300,6737.322,91.726,361.506,356.867,0.0
55788.0,STARLINK-5804,PAYLOAD,2023-07-13 23:06:15,15.6992614,0.0003587,69.998,143.4916,262.5654,97.5134,-1.4299e-06,-3.85e-06,0.0,0 STARLINK-5804,1 55788U 23028AZ  23194.96267458 -.00000385  00000-0 -14299-5 0  9992,2 55788  69.9980 143.4916 0003587 262.5654  97.5134 15.69926140 21417,6737.245,91.724,361.527,356.694,0.0
55788.0,STARLINK-5804,PAYLOAD,2023-07-14 06:45:00,15.69933247,0.0003496,69.998,142.5961,262.1899,97.8899,1.2091e-05,1.242e-05,0.0,0 STARLINK-5804,1 55788U 23028AZ  23195.28125017  .00001242  00000-0  12091-4 0  9990,2 55788  69.9980 142.5961 0003496 262.1899  97.8899 15.69933247 21465,6737.225,91.724,361.445,356.735,0.0
55788.0,STARLINK-5804,PAYLOAD,2023-07-15 02:37:47,15.69924446,0.0003315,69.9985,140.2692,265.0406,95.0412,5.1951e-06,4.12e-06,0.0,0 STARLINK-5804,1 55788U 23028AZ  23196.10957431  .00000412  00000-0  51951-5 0  9992,2 55788  69.9985 140.2692 0003315 265.0406  95.0412 15.69924446 21598,6737.25,91.724,361.349,356.882,0.0
